STARLINK-32462          
1 62129U 24222R   26068.53414897  .00020418  00000+0  74956-3 0  9993
2 62129  43.0035 133.7368 0002113 270.1900  89.8710 15.27574971 72767
FLOCK 4G-8              
1 62613U 25009E   26068.72381419  .00013559  00000+0  50438-3 0  9996
2 62613  97.4045 151.2834 0003050 315.2538  44.8455 15.27623414 63721
